{"version": 0.6, "generator": "Overpass API 0.7.61.5 4133829e", "osm3s": {"timestamp_osm_base": "2024-02-21T15:05:00Z", "copyright": "The data included in this document is from www.openstreetmap.org. The data is made available under ODbL."}, "elements": [{"type": "node", "id": 255779115, "lat": 38.4392321, "lon": 27.1437218, "tags": {"addr:street": "Alsancak Sevgi Yolu", "amenity": "fast_food", "name": "Konyali mesut usta", "wheelchair": "no"}}, {"type": "node", "id": 432815320, "lat": 38.4392105, "lon": 27.1452873, "tags": {"amenity": "parking"}}, {"type": "node", "id": 435509637, "lat": 38.4400584, "lon": 27.1468731, "tags": {"amenity": "telephone"}}, {"type": "node", "id": 590576309, "lat": 38.4422442, "lon": 27.1437407, "tags": {"amenity": "bank", "atm": "yes", "brand": "Vak\u0131fbank", "brand:wikidata": "Q1148521", "brand:wikipedia": "en:Vak\u0131fBank", "name": "Vak\u0131fbank", "wheelchair": "no"}}, {"type": "node", "id": 590578569, "lat": 38.4393277, "lon": 27.1460753, "tags": {"amenity": "parking"}}, {"type": "node", "id": 671804811, "lat": 38.4404533, "lon": 27.146673, "tags": {"amenity": "atm", "brand": "QNB Finansbank", "brand:wikidata": "Q1416237", "brand:wikipedia": "en:QNB Finansbank", "name": "QNB Finansbank", "operator": "QNB Finansbank", "operator:wikidata": "Q1416237", "operator:wikipedia": "en:QNB Finansbank"}}, {"type": "node", "id": 1663426078, "lat": 38.4358123, "lon": 27.1419691, "tags": {"amenity": "nightclub", "name": "Cix club", "wheelchair": "no"}}, {"type": "node", "id": 1836488785, "lat": 38.441318, "lon": 27.1456841}, {"type": "node", "id": 1836488786, "lat": 38.4413589, "lon": 27.1453422}, {"type": "node", "id": 1836488787, "lat": 38.4415774, "lon": 27.1456013}, {"type": "node", "id": 1836488788, "lat": 38.4416953, "lon": 27.1453432}, {"type": "node", "id": 1836488789, "lat": 38.4415914, "lon": 27.1458694}, {"type": "node", "id": 1836488792, "lat": 38.4416985, "lon": 27.145718}, {"type": "node", "id": 2619815586, "lat": 38.4383917, "lon": 27.145059}, {"type": "node", "id": 2619815587, "lat": 38.4378423, "lon": 27.145087}, {"type": "node", "id": 2619815589, "lat": 38.43841, "lon": 27.1456446}, {"type": "node", "id": 2659842623, "lat": 38.4371805, "lon": 27.1474466}, {"type": "node", "id": 2659842624, "lat": 38.4371535, "lon": 27.1469002}, {"type": "node", "id": 2659842626, "lat": 38.4370552, "lon": 27.1469121}, {"type": "node", "id": 2659842627, "lat": 38.437059, "lon": 27.1470589}, {"type": "node", "id": 2659842629, "lat": 38.4369202, "lon": 27.1470749}, {"type": "node", "id": 2659842630, "lat": 38.4369212, "lon": 27.1471598}, {"type": "node", "id": 2659842631, "lat": 38.4367862, "lon": 27.1471955}, {"type": "node", "id": 2659842633, "lat": 38.4368199, "lon": 27.1473186}, {"type": "node", "id": 2659842634, "lat": 38.436845, "lon": 27.1473653}, {"type": "node", "id": 2659842636, "lat": 38.4368932, "lon": 27.1474121}, {"type": "node", "id": 2659842638, "lat": 38.4369539, "lon": 27.1474416}, {"type": "node", "id": 2659842640, "lat": 38.4370127, "lon": 27.1474626}, {"type": "node", "id": 2659842641, "lat": 38.437167, "lon": 27.1474503}, {"type": "node", "id": 2683185185, "lat": 38.4391097, "lon": 27.1438083, "tags": {"addr:city": "\u0130zmir", "addr:housenumber": "118", "addr:postcode": "35220", "addr:street": "K\u0131br\u0131s \u015eehitleri Caddesi", "amenity": "restaurant", "name": "kokorecin alasi", "note": "G\u00fczellik ve Kozmetik", "phone": "+90 232 464 99 11", "shop": "beauty;cosmetics", "website": "http://www.matchcostmetics.com", "wheelchair": "no"}}, {"type": "node", "id": 3779969057, "lat": 38.435743, "lon": 27.1415113, "tags": {"addr:city": "\u0130zmir", "addr:street": "Atat\u00fcrk Caddesi;K\u0131br\u0131s \u015eehitler Cd", "amenity": "restaurant", "name": "Midyeli", "smoking": "yes"}}, {"type": "node", "id": 3977974956, "lat": 38.4369027, "lon": 27.1422027, "tags": {"amenity": "cafe", "name": "Poetika Bab\u0131ali Kahvecisi"}}, {"type": "node", "id": 4257078365, "lat": 38.4363362, "lon": 27.1461454, "tags": {"amenity": "car_rental"}}, {"type": "node", "id": 4460577096, "lat": 38.438021, "lon": 27.1418714, "tags": {"amenity": "bar", "name": "Varuna Gezgin", "name:tr": "Varuna Gezgin"}}, {"type": "node", "id": 4460642597, "lat": 38.4392878, "lon": 27.1427522, "tags": {"amenity": "bar", "name": "Cinat\u0131 Cafe Bar", "name:tr": "Cinat\u0131 Cafe Bar"}}, {"type": "node", "id": 4680239575, "lat": 38.4367294, "lon": 27.1415922, "tags": {"addr:city": "\u0130zmir", "addr:housenumber": "2C", "addr:neighbourhood": "Alsancak", "addr:postcode": "35220", "addr:street": "1447. Sokak", "amenity": "restaurant", "cuisine": "turkish", "name": "Meyhane Batti", "phone": "+90 232 464 76 19"}}, {"type": "node", "id": 4752218042, "lat": 38.4372067, "lon": 27.1425842, "tags": {"addr:street": "1454. Sokak", "amenity": "restaurant", "name:en": "Rokalemon Visual Arts Office", "shop": "photo", "toilets:wheelchair": "no"}}, {"type": "node", "id": 4915180822, "lat": 38.4376728, "lon": 27.1424769, "tags": {"addr:street": "Gaz\u0131 kad\u0131nlar Soka\u011f\u0131 16/a", "amenity": "bar", "name": "Clinic"}}, {"type": "node", "id": 5217518522, "lat": 38.4373219, "lon": 27.1427217, "tags": {"amenity": "nightclub", "name": "Jackson's"}}, {"type": "node", "id": 5275077821, "lat": 38.4355919, "lon": 27.1420138, "tags": {"amenity": "bar", "name": "meyhane batti"}}, {"type": "node", "id": 5284001055, "lat": 38.4405639, "lon": 27.1441553, "tags": {"amenity": "cafe", "brand": "Starbucks", "brand:wikidata": "Q37158", "brand:wikipedia": "en:Starbucks", "cuisine": "coffee_shop", "name": "Starbucks", "official_name": "Starbucks Coffee", "takeaway": "yes", "wheelchair": "no"}}, {"type": "node", "id": 5287282705, "lat": 38.4380927, "lon": 27.1436072, "tags": {"amenity": "fast_food", "name": "Dombili Kokorec"}}, {"type": "node", "id": 5287326464, "lat": 38.4409987, "lon": 27.144139, "tags": {"amenity": "cafe", "name": "Kebo", "wheelchair": "yes"}}, {"type": "node", "id": 5287342878, "lat": 38.4410815, "lon": 27.1440705, "tags": {"amenity": "cafe", "name": "Babayani", "wheelchair": "yes"}}, {"type": "node", "id": 5287354462, "lat": 38.4404213, "lon": 27.1440177, "tags": {"amenity": "cafe", "name": "Brew Mood Coffee And Tea", "wheelchair": "yes"}}, {"type": "node", "id": 5287356821, "lat": 38.4402685, "lon": 27.144136, "tags": {"amenity": "bank", "brand": "Ziraat Bankas\u0131", "brand:wikidata": "Q696003", "brand:wikipedia": "en:Ziraat Bank", "name": "Ziraat Bankas\u0131", "wheelchair": "yes"}}, {"type": "node", "id": 5287362333, "lat": 38.4402271, "lon": 27.1441178, "tags": {"amenity": "cafe", "name": "Ayakustu Kahve", "wheelchair": "yes"}}, {"type": "node", "id": 5287371675, "lat": 38.4396984, "lon": 27.1439604, "tags": {"amenity": "fast_food", "name": "Oncu", "wheelchair": "yes"}}, {"type": "node", "id": 5287378818, "lat": 38.4381223, "lon": 27.1435644, "tags": {"amenity": "restaurant", "name": "Ikram", "wheelchair": "no"}}, {"type": "node", "id": 5287378819, "lat": 38.4395296, "lon": 27.1438352, "tags": {"amenity": "restaurant", "name": "Urfa taste", "wheelchair": "no"}}, {"type": "node", "id": 5287380809, "lat": 38.4372437, "lon": 27.1432628, "tags": {"amenity": "cafe", "name": "Doga Cafe", "wheelchair": "yes"}}, {"type": "node", "id": 5287380923, "lat": 38.4377252, "lon": 27.1434292, "tags": {"amenity": "restaurant", "name": "minisali birtat", "wheelchair": "no"}}, {"type": "node", "id": 5287380929, "lat": 38.4374028, "lon": 27.1433365, "tags": {"amenity": "bank", "atm": "yes", "brand": "Garanti BBVA", "brand:wikidata": "Q322962", "brand:wikipedia": "en:Garanti Bank", "name": "Garanti BBVA", "wheelchair": "yes"}}, {"type": "node", "id": 5287381413, "lat": 38.4374167, "lon": 27.1432902, "tags": {"addr:city": "\u0130zmir", "addr:housenumber": "118", "addr:postcode": "35220", "addr:street": "K\u0131br\u0131s \u015eehitleri Caddesi", "amenity": "restaurant", "name": "karatas doner", "wheelchair": "limited"}}, {"type": "node", "id": 5287381414, "lat": 38.4404593, "lon": 27.1432668, "tags": {"addr:housenumber": "hospital", "addr:street": "1479. Sokak", "amenity": "hospital", "healthcare": "hospital", "name": "ozel kent"}}, {"type": "node", "id": 5287381419, "lat": 38.4380707, "lon": 27.1436499, "tags": {"addr:city": "\u0130zmir", "addr:postcode": "35220", "addr:street": "K\u0131br\u0131s \u015eehitleri Caddesi", "amenity": "restaurant", "name": "pide", "toilets:wheelchair": "no", "wheelchair": "limited"}}, {"type": "node", "id": 5287381420, "lat": 38.438187, "lon": 27.1436541, "tags": {"addr:city": "\u0130zmir", "addr:housenumber": "118", "addr:postcode": "35220", "addr:street": "K\u0131br\u0131s \u015eehitleri Caddesi", "amenity": "restaurant", "name": "yenidogan kokorec", "wheelchair": "no"}}, {"type": "node", "id": 5287384171, "lat": 38.4366926, "lon": 27.143162, "tags": {"amenity": "restaurant", "name": "K\u00f6fteci Ramiz", "wheelchair": "yes"}}, {"type": "node", "id": 5287387835, "lat": 38.4352727, "lon": 27.1426911, "tags": {"addr:city": "\u0130zmir", "addr:district": "Konak", "addr:housenumber": "12", "addr:neighbourhood": "Alsancak", "addr:postcode": "35220", "addr:street": "K\u0131br\u0131s \u015eehitleri Caddesi", "amenity": "community_centre", "building": "yes", "name": "Turkan Saylan", "phone": "+902324225236", "toilets:wheelchair": "yes", "website": "https://www.konak.bel.tr/kultur-sanat/kultur-merkezleri/turkan-saylan-kultur-merkezi"}}, {"type": "node", "id": 5287387838, "lat": 38.4370021, "lon": 27.1431757, "tags": {"addr:city": "\u0130zmir", "addr:postcode": "35220", "addr:street": "K\u0131br\u0131s \u015eehitleri Caddesi", "amenity": "restaurant", "name": "chickinn", "wheelchair": "limited"}}, {"type": "node", "id": 5287388975, "lat": 38.435616, "lon": 27.142722, "tags": {"addr:city": "\u0130zmir", "addr:district": "Konak", "addr:housenumber": "16", "addr:neighbourhood": "Alsancak", "addr:postcode": "35220", "addr:street": "K\u0131br\u0131s \u015eehitleri Caddesi", "amenity": "pharmacy", "healthcare": "pharmacy", "name": "Cagdas Pharmacy", "name:tr": "Eczane \u00c7a\u011fda\u015f", "wheelchair": "yes"}}, {"type": "node", "id": 5287391747, "lat": 38.4365457, "lon": 27.1431133, "tags": {"amenity": "bank", "atm": "yes", "brand": "Halkbank", "brand:wikidata": "Q3593818", "brand:wikipedia": "en:Halkbank a.d.", "name": "Halkbank", "wheelchair": "no"}}, {"type": "node", "id": 5287393328, "lat": 38.4355928, "lon": 27.1425586, "tags": {"amenity": "restaurant", "name": "Alsancak Unlu Mamuller", "wheelchair": "yes"}}, {"type": "node", "id": 5287393330, "lat": 38.4354486, "lon": 27.1428356, "tags": {"amenity": "restaurant", "name": "Kom\u015fu Kahve", "wheelchair": "no"}}, {"type": "node", "id": 5287404340, "lat": 38.4372812, "lon": 27.1435345, "tags": {"amenity": "restaurant", "name": "Baraka", "wheelchair": "no"}}, {"type": "node", "id": 5287404344, "lat": 38.4374929, "lon": 27.1442602, "tags": {"addr:city": "\u0130zmir", "addr:district": "konak", "addr:housenumber": "8/A", "addr:street": "1484. Sokak", "amenity": "restaurant", "internet_access": "wlan", "name": "Yasam Vegan Kafe", "opening_hours": "Mo-Sa 12:00-21:30", "outdoor_seating": "yes", "phone": "+905340330372", "website": "https://yasamfoods.com", "wheelchair": "no"}}, {"type": "node", "id": 5287404348, "lat": 38.4372817, "lon": 27.1441462, "tags": {"amenity": "cafe", "name": "Junker", "wheelchair": "no"}}, {"type": "node", "id": 5287404349, "lat": 38.4371901, "lon": 27.1440931, "tags": {"amenity": "cafe", "name": "Alin", "wheelchair": "no"}}, {"type": "node", "id": 5287404353, "lat": 38.437188, "lon": 27.1440953, "tags": {"amenity": "cafe", "name": "Blue", "wheelchair": "no"}}, {"type": "node", "id": 5287436065, "lat": 38.4378762, "lon": 27.1434775, "tags": {"amenity": "fast_food", "brand": "Burger King", "brand:wikidata": "Q177054", "brand:wikipedia": "en:Burger King", "cuisine": "burger", "name": "Burger King", "takeaway": "yes", "wheelchair": "yes"}}, {"type": "node", "id": 5287436080, "lat": 38.4368468, "lon": 27.1430094, "tags": {"amenity": "restaurant", "name": "Bayd\u00f6ner", "wheelchair": "yes"}}, {"type": "node", "id": 5287436081, "lat": 38.4364046, "lon": 27.1428677, "tags": {"amenity": "pharmacy", "healthcare": "pharmacy", "name": "\u00d6zlem Eczanesi", "wheelchair": "yes"}}, {"type": "node", "id": 5287436114, "lat": 38.4382171, "lon": 27.143644, "tags": {"amenity": "restaurant", "name": "Beyababa", "wheelchair": "no"}}, {"type": "node", "id": 5287436116, "lat": 38.4396253, "lon": 27.143695, "tags": {"amenity": "restaurant", "name": "Aysel Abla Ev Yemekleri", "wheelchair": "limited"}}, {"type": "node", "id": 5287436117, "lat": 38.4383757, "lon": 27.1435918, "tags": {"amenity": "cafe", "name": "Teyzem Borek", "wheelchair": "limited"}}, {"type": "node", "id": 5287436119, "lat": 38.4396548, "lon": 27.143697, "tags": {"amenity": "pharmacy", "healthcare": "pharmacy", "name": "Eczane Efes", "wheelchair": "no"}}, {"type": "node", "id": 5287436725, "lat": 38.4397022, "lon": 27.1437068, "tags": {"amenity": "fast_food", "name": "Acar", "wheelchair": "limited"}}, {"type": "node", "id": 5287436726, "lat": 38.4383037, "lon": 27.1436162, "tags": {"amenity": "fast_food", "brand": "Burger King", "brand:wikidata": "Q177054", "brand:wikipedia": "en:Burger King", "cuisine": "burger", "name": "Burger King", "takeaway": "yes", "wheelchair": "yes"}}, {"type": "node", "id": 5287436728, "lat": 38.4383308, "lon": 27.1436263, "tags": {"amenity": "community_centre", "name": "Prometric", "wheelchair": "no"}}, {"type": "node", "id": 5287436731, "lat": 38.4382251, "lon": 27.1437009, "tags": {"amenity": "cafe", "name": "Meyhane Babur", "wheelchair": "no"}}, {"type": "node", "id": 5287436732, "lat": 38.4396595, "lon": 27.1437518, "tags": {"amenity": "fast_food", "name": "Oncu", "wheelchair": "no"}}, {"type": "node", "id": 5287436734, "lat": 38.4382775, "lon": 27.1437009, "tags": {"amenity": "restaurant", "name": "Feristah", "wheelchair": "limited"}}, {"type": "node", "id": 5287436738, "lat": 38.4396455, "lon": 27.14397, "tags": {"amenity": "cafe", "name": "Aloe Vera", "wheelchair": "no"}}, {"type": "node", "id": 5287436739, "lat": 38.4384742, "lon": 27.1436411, "tags": {"amenity": "restaurant", "name": "Kuzu Kuzu", "wheelchair": "no"}}, {"type": "node", "id": 5287436740, "lat": 38.4382535, "lon": 27.1436665, "tags": {"amenity": "restaurant", "name": "Agora Meyhanesi", "wheelchair": "no"}}, {"type": "node", "id": 5287446186, "lat": 38.4369236, "lon": 27.1412047, "tags": {"addr:street": "Atat\u00fcrk Caddesi", "amenity": "restaurant", "cuisine": "turkish", "name": "Deli's", "wheelchair": "yes"}}, {"type": "node", "id": 5287447535, "lat": 38.4411033, "lon": 27.1428271, "tags": {"amenity": "restaurant", "name": "Gastro state", "wheelchair": "no"}}, {"type": "node", "id": 5287447536, "lat": 38.4401946, "lon": 27.1424547, "tags": {"amenity": "cafe", "name": "Kandemir Kafe", "wheelchair": "limited"}}, {"type": "node", "id": 5287447538, "lat": 38.4421551, "lon": 27.143713, "tags": {"amenity": "cafe", "name": "Harley-Davidson", "wheelchair": "no"}}, {"type": "node", "id": 5287447539, "lat": 38.4402762, "lon": 27.1425942, "tags": {"amenity": "cafe", "name": "Cellini masajkoltugu", "shop": "furniture", "wheelchair": "no"}}, {"type": "node", "id": 5287447541, "lat": 38.44206, "lon": 27.1434727, "tags": {"amenity": "cafe", "name": "Bezdum", "wheelchair": "no"}}, {"type": "node", "id": 5287447543, "lat": 38.4388219, "lon": 27.1419527, "tags": {"amenity": "restaurant", "name": "Tuzu Biberi", "wheelchair": "limited"}}, {"type": "node", "id": 5287447544, "lat": 38.438941, "lon": 27.141973, "tags": {"amenity": "cafe", "name": "Kahve Askina", "wheelchair": "limited"}}, {"type": "node", "id": 5287447545, "lat": 38.4409287, "lon": 27.1427815, "tags": {"amenity": "cafe", "name": "Tyche Cafe", "wheelchair": "no"}}, {"type": "node", "id": 5287447546, "lat": 38.441537, "lon": 27.142929, "tags": {"amenity": "pub", "name": "King Edward's", "wheelchair": "no"}}, {"type": "node", "id": 5287447547, "lat": 38.4404463, "lon": 27.1425871, "tags": {"amenity": "restaurant", "name": "Meshur Tavaci Recepusta 1978", "wheelchair": "yes"}}, {"type": "node", "id": 5287447548, "lat": 38.4413879, "lon": 27.1428747, "tags": {"amenity": "restaurant", "name": "Bistro bet@10", "wheelchair": "no"}}, {"type": "node", "id": 5287447549, "lat": 38.4408103, "lon": 27.1427323, "tags": {"amenity": "cafe", "name": "Sakiz Adasi", "wheelchair": "limited"}}, {"type": "node", "id": 5287447550, "lat": 38.4399498, "lon": 27.14238, "tags": {"amenity": "cafe", "name": "Play Box cafe & Oyun Dunyasi", "wheelchair": "limited"}}, {"type": "node", "id": 5287447551, "lat": 38.4419882, "lon": 27.1433629, "tags": {"amenity": "restaurant", "name": "Tek Tek", "wheelchair": "no"}}, {"type": "node", "id": 5287447557, "lat": 38.4421143, "lon": 27.1435868, "tags": {"amenity": "restaurant", "name": "01 Adana", "wheelchair": "no"}}, {"type": "node", "id": 5287457688, "lat": 38.4356943, "lon": 27.1409576, "tags": {"addr:street": "Atat\u00fcrk Caddesi;K\u0131br\u0131s \u015eehitler Cd", "amenity": "cafe", "name": "Kalyon", "wheelchair": "limited"}}, {"type": "node", "id": 5287457692, "lat": 38.4376046, "lon": 27.143134, "tags": {"addr:street": "Alsancak Sevgi Yolu", "amenity": "cafe", "name": "kendine has", "wheelchair": "no"}}, {"type": "node", "id": 5287457702, "lat": 38.4357882, "lon": 27.1421085, "tags": {"addr:city": "\u0130zmir", "addr:housenumber": "2C", "addr:postcode": "35220", "addr:street": "1447. Sokak", "amenity": "restaurant", "name": "Meyhane Al Sancak", "wheelchair": "no"}}, {"type": "node", "id": 5287457704, "lat": 38.437648, "lon": 27.1427706, "tags": {"addr:street": "Alsancak Sevgi Yolu", "amenity": "cafe", "name": "Kaybedenler kul\u00fcb\u00fc", "toilets:wheelchair": "no"}}, {"type": "node", "id": 5287457708, "lat": 38.4352027, "lon": 27.14093, "tags": {"addr:street": "Atat\u00fcrk Caddesi;K\u0131br\u0131s \u015eehitler Cd", "amenity": "restaurant", "name": "Eco pub", "wheelchair": "no"}}, {"type": "node", "id": 5287457711, "lat": 38.4355164, "lon": 27.1407576, "tags": {"addr:street": "Atat\u00fcrk Caddesi;K\u0131br\u0131s \u015eehitler Cd", "amenity": "restaurant", "name": "Stone bar", "tourism": "hotel", "wheelchair": "designated"}}, {"type": "node", "id": 5287457712, "lat": 38.4373893, "lon": 27.1422159, "tags": {"addr:street": "1450. Sokak", "amenity": "restaurant", "name": "Vecihi", "wheelchair": "no"}}, {"type": "node", "id": 5287457714, "lat": 38.4367578, "lon": 27.1420859, "tags": {"addr:street": "1450. Sokak", "amenity": "cafe", "name": "Hermit", "wheelchair": "no"}}, {"type": "node", "id": 5287457718, "lat": 38.4353267, "lon": 27.1411108, "tags": {"addr:city": "\u0130zmir", "addr:housenumber": "fast food", "addr:postcode": "35220", "addr:street": "Atat\u00fcrk Caddesi;K\u0131br\u0131s \u015eehitler Cd", "amenity": "fast_food", "name": "Burgar mate", "wheelchair": "no"}}, {"type": "node", "id": 5287457720, "lat": 38.4366072, "lon": 27.1428014, "tags": {"addr:street": "1450. Sokak", "amenity": "restaurant", "cuisine": "chinese", "name": "Sakoshi", "wheelchair": "no"}}, {"type": "node", "id": 5287460055, "lat": 38.4392155, "lon": 27.1464479, "tags": {"addr:street": "1471. Sokak", "amenity": "fast_food", "name": "kofteci baris", "wheelchair": "no"}}, {"type": "node", "id": 5287460057, "lat": 38.439152, "lon": 27.1471687, "tags": {"addr:street": "Liman Caddesi", "amenity": "cafe", "name": "albatros", "wheelchair": "no"}}, {"type": "node", "id": 5287460058, "lat": 38.4397851, "lon": 27.1470679, "tags": {"addr:street": "Liman Caddesi", "amenity": "fast_food", "name": "neo piknik", "wheelchair": "designated"}}, {"type": "node", "id": 5287460059, "lat": 38.4392312, "lon": 27.1439425, "tags": {"addr:street": "Alsancak Sevgi Yolu", "amenity": "restaurant", "name": "ayak ustu lezzet duragi", "wheelchair": "no"}}, {"type": "node", "id": 5287460062, "lat": 38.4396873, "lon": 27.1471166, "tags": {"addr:street": "Liman Caddesi", "amenity": "pharmacy", "healthcare": "pharmacy", "wheelchair": "no"}}, {"type": "node", "id": 5287460066, "lat": 38.4392218, "lon": 27.1466817, "tags": {"addr:street": "1471. Sokak", "amenity": "pharmacy", "healthcare": "pharmacy", "wheelchair": "no"}}, {"type": "node", "id": 5287460069, "lat": 38.4392262, "lon": 27.1441064, "tags": {"addr:street": "Alsancak Sevgi Yolu", "amenity": "restaurant", "name": "kulub ali balik restaurant", "wheelchair": "no"}}, {"type": "node", "id": 5287460070, "lat": 38.4394017, "lon": 27.1471103, "tags": {"addr:street": "Liman Caddesi", "amenity": "dentist", "healthcare": "dentist", "name": "avrupadent agis & dis", "wheelchair": "designated"}}, {"type": "node", "id": 5287460071, "lat": 38.4390254, "lon": 27.1472233, "tags": {"addr:street": "1471. Sokak", "amenity": "restaurant", "name": "fistik", "wheelchair": "no"}}, {"type": "node", "id": 5287460075, "lat": 38.4392413, "lon": 27.1438565, "tags": {"addr:street": "Alsancak Sevgi Yolu", "amenity": "restaurant", "name": "dostlar firini", "wheelchair": "limited"}}, {"type": "node", "id": 5287460082, "lat": 38.4391875, "lon": 27.1449764, "tags": {"addr:street": "1456 Sk", "amenity": "car_rental", "name": "luxury car rental", "wheelchair": "designated"}}, {"type": "node", "id": 5287460083, "lat": 38.4392046, "lon": 27.1458961, "tags": {"addr:street": "1471. Sokak", "amenity": "cafe", "name": "sokak bornova", "wheelchair": "limited"}}, {"type": "node", "id": 5287461157, "lat": 38.4390676, "lon": 27.1456045, "tags": {"addr:housenumber": "74", "addr:street": "1469 Sk", "amenity": "restaurant", "name": "Per La Vita", "wheelchair": "no"}}, {"type": "node", "id": 5287461159, "lat": 38.4391283, "lon": 27.1465832, "tags": {"addr:housenumber": "110", "addr:street": "1469 Sk", "amenity": "cafe", "name": "Ercan Cayevi", "wheelchair": "no"}}, {"type": "node", "id": 5287461161, "lat": 38.4389446, "lon": 27.1437652, "tags": {"addr:street": "Alsancak Sevgi Yolu", "amenity": "cafe", "name": "Ege Mektup Turku Evi", "toilets:wheelchair": "no"}}, {"type": "node", "id": 5287461166, "lat": 38.4390759, "lon": 27.145295, "tags": {"addr:housenumber": "70", "addr:street": "1469 Sk", "amenity": "place_of_worship", "name": "Dirilis Kilisesi", "religion": "christian", "wheelchair": "no"}}, {"type": "node", "id": 5287461167, "lat": 38.4390853, "lon": 27.1458871, "tags": {"addr:housenumber": "86", "addr:street": "1468. Sokak", "amenity": "cafe", "name": "Dinozor bar", "toilets:wheelchair": "no"}}, {"type": "node", "id": 5287461170, "lat": 38.439123, "lon": 27.146524, "tags": {"addr:housenumber": "106", "addr:street": "1469 Sk", "amenity": "cafe", "name": "Zumrut cafe", "wheelchair": "no"}}, {"type": "node", "id": 5287461172, "lat": 38.4393636, "lon": 27.1471478, "tags": {"addr:housenumber": "416", "addr:street": "Liman Caddesi", "amenity": "fast_food", "brand": "Pizza Pizza", "brand:wikidata": "Q1194143", "brand:wikipedia": "en:Pizza Pizza", "cuisine": "pizza", "name": "Pizza Pizza", "takeaway": "yes", "wheelchair": "limited"}}, {"type": "node", "id": 5287461174, "lat": 38.4392882, "lon": 27.1471608, "tags": {"addr:street": "Liman Caddesi", "amenity": "marketplace", "name": "Atom", "wheelchair": "limited"}}, {"type": "node", "id": 5287461175, "lat": 38.4391215, "lon": 27.1464839, "tags": {"addr:housenumber": "102", "addr:street": "1469 Sk", "amenity": "restaurant", "name": "Kirik Gatal", "wheelchair": "yes"}}, {"type": "node", "id": 5287461179, "lat": 38.4390778, "lon": 27.14577, "tags": {"addr:housenumber": "84", "addr:street": "1469 Sk", "amenity": "cafe", "name": "Liberta", "wheelchair": "no"}}, {"type": "node", "id": 5287461181, "lat": 38.4390758, "lon": 27.1455138, "tags": {"addr:housenumber": "76", "addr:street": "1460 Sk", "amenity": "cafe", "name": "Bean II Cup", "wheelchair": "no"}}, {"type": "node", "id": 5287461186, "lat": 38.4391022, "lon": 27.1444778, "tags": {"addr:housenumber": "32", "addr:street": "1469 Sk", "amenity": "nightclub", "name": "Yeni Vesile", "wheelchair": "limited"}}, {"type": "node", "id": 5289185666, "lat": 38.4372643, "lon": 27.1432619, "tags": {"amenity": "restaurant", "name": "Chick Inn", "wheelchair": "limited"}}, {"type": "node", "id": 5289185667, "lat": 38.4372757, "lon": 27.1436178, "tags": {"amenity": "cafe", "name": "Mare Cafe", "wheelchair": "limited"}}, {"type": "node", "id": 5289185668, "lat": 38.4372568, "lon": 27.1438352, "tags": {"amenity": "cafe", "name": "Culube", "wheelchair": "yes"}}, {"type": "node", "id": 5289185669, "lat": 38.4378624, "lon": 27.1438358, "tags": {"amenity": "restaurant", "name": "Kalabalik", "wheelchair": "limited"}}, {"type": "node", "id": 5289185670, "lat": 38.4380021, "lon": 27.1435567, "tags": {"amenity": "fast_food", "name": "Pi'de", "wheelchair": "limited"}}, {"type": "node", "id": 5289185673, "lat": 38.4376447, "lon": 27.1442762, "tags": {"amenity": "cafe", "name": "Coffe house", "wheelchair": "yes"}}, {"type": "node", "id": 5289185674, "lat": 38.4378563, "lon": 27.143574, "tags": {"amenity": "restaurant", "name": "Kalabalik Meyhane", "wheelchair": "no"}}, {"type": "node", "id": 5289185676, "lat": 38.4372801, "lon": 27.1434732, "tags": {"amenity": "cafe", "name": "Nar Cafe", "wheelchair": "limited"}}, {"type": "node", "id": 5289185677, "lat": 38.4372561, "lon": 27.1437419, "tags": {"amenity": "cafe", "name": "Baraka", "wheelchair": "limited"}}, {"type": "node", "id": 5289185678, "lat": 38.4379687, "lon": 27.1441852, "tags": {"amenity": "restaurant", "name": "Beybaba", "wheelchair": "yes"}}, {"type": "node", "id": 5289185679, "lat": 38.4378594, "lon": 27.1434352, "tags": {"amenity": "fast_food", "brand": "Burger King", "brand:wikidata": "Q177054", "brand:wikipedia": "en:Burger King", "cuisine": "burger", "name": "Burger King", "takeaway": "yes", "wheelchair": "yes"}}, {"type": "node", "id": 5295296252, "lat": 38.4353669, "lon": 27.1410866, "tags": {"addr:street": "Atat\u00fcrk Caddesi;K\u0131br\u0131s \u015eehitler Cd", "amenity": "fast_food", "name": "Mersin Tantuni", "wheelchair": "limited"}}, {"type": "node", "id": 5295296264, "lat": 38.4376731, "lon": 27.1421036, "tags": {"addr:street": "Atat\u00fcrk Caddesi", "amenity": "cafe", "name": "cafe du fiesta", "toilets:wheelchair": "limited"}}, {"type": "node", "id": 5444878923, "lat": 38.437451, "lon": 27.1425428, "tags": {"amenity": "nightclub", "name:en": "Marilyn"}}, {"type": "node", "id": 5538795858, "lat": 38.4392327, "lon": 27.1462123, "tags": {"amenity": "bar", "name": "la Puerta"}}, {"type": "node", "id": 5635894423, "lat": 38.4355179, "lon": 27.1410462, "tags": {"amenity": "restaurant", "name": "Bade tesyatant", "name:tr": "Bade testarany"}}, {"type": "node", "id": 5688340427, "lat": 38.4377038, "lon": 27.1415514, "tags": {"addr:housenumber": "300-302", "addr:street": "Atat\u00fcrk Caddesi", "amenity": "restaurant", "name": "Nispet", "name:tr": "Nispet", "opening_hours": "Mo-Su 19:30-05:00"}}, {"type": "node", "id": 5774593955, "lat": 38.4411617, "lon": 27.1439737, "tags": {"addr:housenumber": "179/Z1", "addr:street": "K\u0131br\u0131s \u015eehitleri Caddesi", "amenity": "cafe", "name:en": "Two Cups Coffee Bar & Roastery"}}, {"type": "node", "id": 5836755386, "lat": 38.435141, "lon": 27.1408108, "tags": {"addr:housenumber": "219/A", "addr:street": "Cumhuriyet Bulvar\u0131", "amenity": "restaurant", "name": "Kaylon", "name:en": "Kalyon Cafe & Bar", "phone": "+902324211005"}}, {"type": "node", "id": 5836792185, "lat": 38.4352199, "lon": 27.140963, "tags": {"amenity": "atm", "brand": "Ziraat Bankas\u0131", "brand:wikidata": "Q696003", "brand:wikipedia": "en:Ziraat Bank", "name": "Ziraat Bankas\u0131", "operator": "Ziraat Bankas\u0131", "operator:wikidata": "Q696003", "operator:wikipedia": "en:Ziraat Bank"}}, {"type": "node", "id": 6299255693, "lat": 38.4385312, "lon": 27.1449079, "tags": {"amenity": "bar", "name": "Kasaba Alsancak"}}, {"type": "node", "id": 6469190188, "lat": 38.4369743, "lon": 27.1442361, "tags": {"addr:housenumber": "28", "addr:street": "1454. Sokak", "amenity": "restaurant", "internet_access": "wlan", "name": "Umami", "name:en": "umami", "opening_hours": "Mo-Su 08:00-21:00"}}, {"type": "node", "id": 6625066385, "lat": 38.4374643, "lon": 27.1423756, "tags": {"addr:street": "Muzaffer \u0130zg\u00fc Sokak", "amenity": "bar", "name": "Kovan", "name:ru": "\u0423\u043b\u0435\u0439"}}, {"type": "node", "id": 6627474809, "lat": 38.4386384, "lon": 27.1429417, "tags": {"amenity": "school", "name": "\u00d6SYM e-S\u0131nav Binas\u0131"}}, {"type": "node", "id": 6630741565, "lat": 38.4413973, "lon": 27.1450932}, {"type": "node", "id": 6630741566, "lat": 38.4420751, "lon": 27.1452373}, {"type": "node", "id": 6630741567, "lat": 38.4419848, "lon": 27.1453902}, {"type": "node", "id": 6718118386, "lat": 38.4368027, "lon": 27.1458409, "tags": {"amenity": "restaurant"}}, {"type": "node", "id": 6768625685, "lat": 38.4411302, "lon": 27.1439672, "tags": {"amenity": "bar", "name": "\u00c7elebi Bomba"}}, {"type": "node", "id": 7006201385, "lat": 38.439999, "lon": 27.143788, "tags": {"amenity": "cafe", "name:en": "Poka Coffee Roasters"}}, {"type": "node", "id": 7020202085, "lat": 38.4386576, "lon": 27.1421127, "tags": {"amenity": "restaurant", "name:en": "Alsancak Balik pisiricisi"}}, {"type": "node", "id": 7108562238, "lat": 38.4370425, "lon": 27.1430648, "tags": {"amenity": "restaurant", "name": "K\u0131r\u00e7i\u00e7e\u011fi"}}, {"type": "node", "id": 7108562240, "lat": 38.4373165, "lon": 27.1431853, "tags": {"amenity": "fast_food", "name": "Ayla Tantuni"}}, {"type": "node", "id": 7108562243, "lat": 38.4372036, "lon": 27.1431351, "tags": {"amenity": "restaurant", "name": "Ora"}}, {"type": "node", "id": 7158346585, "lat": 38.4375333, "lon": 27.1426246, "tags": {"amenity": "pub", "name": "Pub Borsa"}}, {"type": "node", "id": 7158346586, "lat": 38.4381648, "lon": 27.1423421, "tags": {"amenity": "pub", "name": "kepler Pavillon", "name:tr": "Kepler Pavilion", "opening_hours": "Mo-Su 10:00-04:00"}}, {"type": "node", "id": 7661781667, "lat": 38.4383852, "lon": 27.1423227}, {"type": "node", "id": 7661781668, "lat": 38.4381035, "lon": 27.1434536}, {"type": "node", "id": 8006285186, "lat": 38.4353519, "lon": 27.1414813, "tags": {"amenity": "bar", "name:en": "Republic"}}, {"type": "node", "id": 8006288185, "lat": 38.4372521, "lon": 27.1428767, "tags": {"amenity": "bar", "name:en": "Sardunya"}}, {"type": "node", "id": 8010696789, "lat": 38.4377452, "lon": 27.142823, "tags": {"amenity": "bar", "name:en": "Sardunya"}}, {"type": "node", "id": 8066503386, "lat": 38.4358823, "lon": 27.142684}, {"type": "node", "id": 8068713360, "lat": 38.4362107, "lon": 27.1416055, "tags": {"amenity": "parking", "layer": "-1", "parking": "underground"}}, {"type": "node", "id": 8068713362, "lat": 38.4360225, "lon": 27.1413236, "tags": {"addr:city": "\u0130zmir", "addr:district": "Konak", "addr:housenumber": "206", "addr:neighbourhood": "Alsancak", "addr:postcode": "35220", "addr:street": "Cumhuriyet Bulvar\u0131", "amenity": "restaurant", "name": "Mavi", "phone": "+90 555 446 67 31"}}, {"type": "node", "id": 8068723602, "lat": 38.4357967, "lon": 27.1422859, "tags": {"addr:city": "\u0130zmir", "addr:district": "Konak", "addr:housenumber": "25;25A", "addr:neighbourhood": "Alsancak", "addr:postcode": "35220", "addr:street": "1448. Sokak", "amenity": "cafe", "name": "D\u00fc\u015fler Yakas\u0131", "phone": "+902324649478"}}, {"type": "node", "id": 8068723603, "lat": 38.4358104, "lon": 27.1421974, "tags": {"addr:city": "\u0130zmir", "addr:district": "Konak", "addr:housenumber": "21;21B", "addr:neighbourhood": "Alsancak", "addr:postcode": "35220", "addr:street": "1448. Sokak", "amenity": "cafe", "name": "\u015e\u0131k Cafe", "phone": "+905074249926"}}, {"type": "node", "id": 8068723604, "lat": 38.4358319, "lon": 27.1421029, "tags": {"addr:city": "\u0130zmir", "addr:district": "Konak", "addr:housenumber": "19", "addr:neighbourhood": "Alsancak", "addr:postcode": "35220", "addr:street": "1448. Sokak", "amenity": "bar", "name": "Deep Rock Bar"}}, {"type": "node", "id": 8068723606, "lat": 38.435897, "lon": 27.141781, "tags": {"addr:city": "\u0130zmir", "addr:district": "Konak", "addr:housenumber": "7;7B", "addr:neighbourhood": "Alsancak", "addr:postcode": "35220", "addr:street": "1448. Sokak", "amenity": "restaurant", "cuisine": "brasserie", "name": "\u015e\u0131mar\u0131k Meyhane", "opening_hours": "Mo-Fr 19:00-02:00; Sa-Su 20:00-02:00", "phone": "+90 232 463 30 63", "website": "www.simarikmeyhane.net"}}, {"type": "node", "id": 8068723608, "lat": 38.4359301, "lon": 27.1415822, "tags": {"addr:city": "\u0130zmir", "addr:district": "Konak", "addr:housenumber": "5", "addr:neighbourhood": "Alsancak", "addr:postcode": "35220", "addr:street": "1448. Sokak", "amenity": "nightclub", "name": "Cix Club"}}, {"type": "node", "id": 8068723609, "lat": 38.4359452, "lon": 27.1415242, "tags": {"addr:city": "\u0130zmir", "addr:district": "Konak", "addr:housenumber": "5A", "addr:neighbourhood": "Alsancak", "addr:postcode": "35220", "addr:street": "1448. Sokak", "amenity": "bar", "name": "Kendine Has"}}, {"type": "node", "id": 8068917151, "lat": 38.4349814, "lon": 27.1424918, "tags": {"addr:city": "\u0130zmir", "addr:district": "Konak", "addr:housenumber": "4A", "addr:neighbourhood": "Alsancak", "addr:postcode": "35220", "addr:street": "K\u0131br\u0131s \u015eehitleri Caddesi", "amenity": "restaurant", "cuisine": "turkish", "name": "Energy Vitamin", "phone": "+902324647337", "website": "https://www.yemeksepeti.com/energy-vitamin-alsancak-kibris-seh-cad-izmir"}}, {"type": "node", "id": 8068917161, "lat": 38.4355304, "lon": 27.1427163, "tags": {"addr:city": "\u0130zmir", "addr:district": "Konak", "addr:housenumber": "14C", "addr:neighbourhood": "Alsancak", "addr:postcode": "35220", "addr:street": "K\u0131br\u0131s \u015eehitleri Caddesi", "amenity": "cafe", "cuisine": "coffee_shop", "name": "Can \u00c7erez Kuru Kahve Ve Tekel", "opening_hours:covid19": "closed", "phone": "+902324221001"}}, {"type": "node", "id": 8068917162, "lat": 38.435566, "lon": 27.1427287, "tags": {"addr:city": "\u0130zmir", "addr:district": "Konak", "addr:housenumber": "16", "addr:neighbourhood": "Alsancak", "addr:postcode": "35220", "addr:street": "K\u0131br\u0131s \u015eehitleri Caddesi", "amenity": "bureau_de_change", "name": "Kordon D\u00f6viz", "opening_hours": "Mo-Fr 09:00-19:00; Sa 10:00-18:00", "phone": "+90 232 463 00 26"}}, {"type": "node", "id": 8070884888, "lat": 38.4406722, "lon": 27.1443752}, {"type": "node", "id": 8070884889, "lat": 38.4405514, "lon": 27.1443567}, {"type": "node", "id": 8070884890, "lat": 38.4405759, "lon": 27.1440965}, {"type": "node", "id": 8070884891, "lat": 38.4406966, "lon": 27.1441149}, {"type": "node", "id": 8071529482, "lat": 38.4358993, "lon": 27.1425985}, {"type": "node", "id": 8071529483, "lat": 38.4358263, "lon": 27.1425749}, {"type": "node", "id": 8071529484, "lat": 38.4358093, "lon": 27.1426605}, {"type": "node", "id": 8071671198, "lat": 38.4399091, "lon": 27.1455766}, {"type": "node", "id": 8071671199, "lat": 38.4399438, "lon": 27.1463102}, {"type": "node", "id": 8071671200, "lat": 38.4403073, "lon": 27.1461707}, {"type": "node", "id": 8071671201, "lat": 38.4403125, "lon": 27.1455565}, {"type": "node", "id": 8071739992, "lat": 38.4385997, "lon": 27.1424036}, {"type": "node", "id": 8072460327, "lat": 38.4396462, "lon": 27.1453673}, {"type": "node", "id": 8072460328, "lat": 38.4396504, "lon": 27.1454692}, {"type": "node", "id": 8072460329, "lat": 38.4397285, "lon": 27.145464}, {"type": "node", "id": 8072460330, "lat": 38.4397243, "lon": 27.145362}, {"type": "node", "id": 8074813997, "lat": 38.4378496, "lon": 27.1458474}, {"type": "node", "id": 8074813998, "lat": 38.4378901, "lon": 27.1450841}, {"type": "node", "id": 8074813999, "lat": 38.4383891, "lon": 27.1450239}, {"type": "node", "id": 8078009212, "lat": 38.4363462, "lon": 27.142301}, {"type": "node", "id": 8078009213, "lat": 38.4366078, "lon": 27.1423792}, {"type": "node", "id": 8078009214, "lat": 38.4367139, "lon": 27.141646}, {"type": "node", "id": 8078009215, "lat": 38.4364724, "lon": 27.141541}, {"type": "node", "id": 8078010372, "lat": 38.4369865, "lon": 27.1418054, "tags": {"addr:city": "\u0130zmir", "addr:district": "Konak", "addr:housenumber": "224", "addr:neighbourhood": "Alsancak", "addr:postcode": "35220", "addr:street": "Cumhuriyet Bulvar\u0131", "amenity": "restaurant", "name": "Beyaz Konak", "opening_hours": "Mo-Su 14:00-03:00", "phone": "+902324218181"}}, {"type": "node", "id": 8078467120, "lat": 38.4377841, "lon": 27.1469811}, {"type": "node", "id": 8078467121, "lat": 38.4376618, "lon": 27.146986}, {"type": "node", "id": 8078467122, "lat": 38.4376727, "lon": 27.147429}, {"type": "node", "id": 8078467123, "lat": 38.4377948, "lon": 27.1474242}, {"type": "node", "id": 8078467124, "lat": 38.4372783, "lon": 27.1469174}, {"type": "node", "id": 8078467125, "lat": 38.4371816, "lon": 27.1469251}, {"type": "node", "id": 8078467126, "lat": 38.437207, "lon": 27.1474341}, {"type": "node", "id": 8078467127, "lat": 38.437307, "lon": 27.1474238}, {"type": "node", "id": 8096126594, "lat": 38.4384302, "lon": 27.1435416}, {"type": "node", "id": 8096126595, "lat": 38.4384584, "lon": 27.1433687}, {"type": "node", "id": 8132940774, "lat": 38.4361441, "lon": 27.1422631}, {"type": "node", "id": 8132940775, "lat": 38.4360869, "lon": 27.1424856}, {"type": "node", "id": 8132940776, "lat": 38.4359464, "lon": 27.1424261}, {"type": "node", "id": 8132940777, "lat": 38.4359903, "lon": 27.1421976}, {"type": "node", "id": 8143809402, "lat": 38.4360498, "lon": 27.1437764}, {"type": "node", "id": 8143809403, "lat": 38.4360469, "lon": 27.1435156}, {"type": "node", "id": 8143809404, "lat": 38.4359048, "lon": 27.1435156}, {"type": "node", "id": 8143809405, "lat": 38.4359097, "lon": 27.1436858}, {"type": "node", "id": 8143809406, "lat": 38.4360196, "lon": 27.1437827}, {"type": "node", "id": 8157548911, "lat": 38.4380516, "lon": 27.1473284, "tags": {"amenity": "library", "name": "\u0130zmir Kent K\u00fct\u00fcphanesi", "name:en": "Izmir City Library"}}, {"type": "node", "id": 8484929703, "lat": 38.4389953, "lon": 27.141173}, {"type": "node", "id": 8484929704, "lat": 38.4390311, "lon": 27.141187}, {"type": "node", "id": 8484929705, "lat": 38.4390229, "lon": 27.1412214}, {"type": "node", "id": 8484929706, "lat": 38.4389871, "lon": 27.1412075}, {"type": "node", "id": 8514596332, "lat": 38.4387179, "lon": 27.1445845, "tags": {"amenity": "cafe", "name": "\u015earlo Cafe"}}, {"type": "node", "id": 8612088217, "lat": 38.4349347, "lon": 27.1424159, "tags": {"amenity": "fast_food", "name:en": "Picasso Doner"}}, {"type": "node", "id": 8612121217, "lat": 38.4376194, "lon": 27.143343, "tags": {"amenity": "cafe", "name:ru": "\u0421\u0432\u0435\u0436\u0435\u0432\u044b\u0436\u0430\u0442\u044b\u0435 \u0441\u043e\u043a\u0438"}}, {"type": "node", "id": 9425805366, "lat": 38.4363526, "lon": 27.1423996, "tags": {"addr:street": "1450. Sokak", "amenity": "fast_food", "cuisine": "mexican", "name": "Burritos"}}, {"type": "node", "id": 9896772565, "lat": 38.4357787, "lon": 27.1428398, "tags": {"amenity": "restaurant", "name": "HD \u0130skender"}}, {"type": "node", "id": 9896777082, "lat": 38.4359343, "lon": 27.1426726, "tags": {"alt_name": "Kentucky Fried Chicken", "amenity": "fast_food", "brand": "KFC", "brand:wikidata": "Q524757", "cuisine": "chicken", "name": "KFC", "takeaway": "yes"}}, {"type": "node", "id": 9896786536, "lat": 38.4351319, "lon": 27.1426322, "tags": {"amenity": "fast_food", "brand": "Burger King", "brand:wikidata": "Q177054", "cuisine": "burger", "name": "Burger King", "takeaway": "yes"}}, {"type": "node", "id": 9896786850, "lat": 38.4348122, "lon": 27.1416941, "tags": {"amenity": "cafe", "name": "Brew Mood Coffee & Tea"}}, {"type": "node", "id": 9896786980, "lat": 38.435208, "lon": 27.1426823, "tags": {"amenity": "fast_food", "name": "Popeyes"}}, {"type": "node", "id": 9896786981, "lat": 38.4353483, "lon": 27.1427126, "tags": {"amenity": "cafe", "name": "Soulmate Coffee"}}, {"type": "node", "id": 9896791662, "lat": 38.4366666, "lon": 27.142933, "tags": {"amenity": "restaurant", "name": "Ercan Burger"}}, {"type": "node", "id": 9896793065, "lat": 38.4359063, "lon": 27.1426552, "tags": {"amenity": "fast_food", "name": "Tavuk D\u00fcnyas\u0131"}}, {"type": "node", "id": 9896799435, "lat": 38.4367049, "lon": 27.142944, "tags": {"amenity": "fast_food", "name": "Levent B\u00f6rek"}}, {"type": "node", "id": 10027838497, "lat": 38.439267, "lon": 27.1432293, "tags": {"addr:city": "Izmir", "addr:street": "1469. Sokak", "air_conditioning": "yes", "amenity": "cafe", "bar": "yes", "check_date": "2022-09-15", "cuisine": "pizza;regional;kebab;burger;sandwich;indian;chicken", "name": "Varuna Gezgin", "outdoor_seating": "yes", "payment:bancomat": "yes", "payment:maestro": "yes", "payment:mastercard": "yes", "payment:visa": "yes", "payment:visa_debit": "yes", "payment:visa_electron": "yes", "toilets": "yes", "wheelchair": "limited"}}, {"type": "node", "id": 10178864389, "lat": 38.4386653, "lon": 27.1447186, "tags": {"amenity": "restaurant", "check_date": "2022-11-12", "cuisine": "mediterranean", "internet_access": "wlan", "internet_access:fee": "customers", "microbrewery": "no", "name": "\u015eahane Meyhane", "name:tr": "\u015eahane Mey\u00f6hane", "outdoor_seating": "yes", "payment:mastercard": "yes", "payment:visa": "yes", "phone": "00905322247743", "reservation": "yes", "smoking": "outside", "wheelchair": "no"}}, {"type": "node", "id": 10731342369, "lat": 38.4411879, "lon": 27.1453463}, {"type": "node", "id": 10731342370, "lat": 38.4412152, "lon": 27.1453114}, {"type": "node", "id": 10731342371, "lat": 38.4412341, "lon": 27.1452604}, {"type": "node", "id": 10731342372, "lat": 38.4412331, "lon": 27.1451907}, {"type": "node", "id": 10731342373, "lat": 38.4412173, "lon": 27.1451397}, {"type": "node", "id": 10731342374, "lat": 38.4411826, "lon": 27.1450982}, {"type": "node", "id": 10731342375, "lat": 38.441128, "lon": 27.1450713}, {"type": "node", "id": 10731342376, "lat": 38.4410913, "lon": 27.1450781}, {"type": "node", "id": 10731342377, "lat": 38.4410618, "lon": 27.1450874}, {"type": "node", "id": 10731342378, "lat": 38.441024, "lon": 27.1451304}, {"type": "node", "id": 10731342379, "lat": 38.4410062, "lon": 27.1451666}, {"type": "node", "id": 10731342380, "lat": 38.441002, "lon": 27.1452081}, {"type": "node", "id": 10731342381, "lat": 38.441002, "lon": 27.1452578}, {"type": "node", "id": 10731342382, "lat": 38.4410104, "lon": 27.1452832}, {"type": "node", "id": 10731342383, "lat": 38.441023, "lon": 27.1453235}, {"type": "node", "id": 10731342384, "lat": 38.4410083, "lon": 27.1453382}, {"type": "node", "id": 10731342385, "lat": 38.4409988, "lon": 27.145365}, {"type": "node", "id": 10731342386, "lat": 38.4408854, "lon": 27.1463964}, {"type": "node", "id": 10731342387, "lat": 38.4409253, "lon": 27.1464017}, {"type": "node", "id": 10731342388, "lat": 38.4409158, "lon": 27.1464567}, {"type": "node", "id": 10731342389, "lat": 38.4411028, "lon": 27.1463575}, {"type": "node", "id": 10731342390, "lat": 38.4411165, "lon": 27.1463414}, {"type": "node", "id": 10731342391, "lat": 38.4412152, "lon": 27.1454536}, {"type": "node", "id": 10731342392, "lat": 38.4411973, "lon": 27.1454187}, {"type": "node", "id": 10731342393, "lat": 38.4412173, "lon": 27.1453986}, {"type": "node", "id": 10731342395, "lat": 38.4410429, "lon": 27.1463802, "tags": {"amenity": "atm", "brand": "TEB", "brand:wikidata": "Q7862447", "operator": "TEB", "operator:wikidata": "Q7862447"}}, {"type": "node", "id": 11438553269, "lat": 38.4373862, "lon": 27.1423437, "tags": {"amenity": "bar", "name": "Che"}}, {"type": "node", "id": 11512087543, "lat": 38.4384639, "lon": 27.141414, "tags": {"amenity": "bicycle_rental", "bicycle_rental": "docking_station", "fee": "yes", "membership": "yes", "name": "Alsancak \u0130skele", "operator": "B\u0130S\u0130M", "payment:credit_cards": "yes", "payment:debit_cards": "yes", "ref": "1114", "website": "http://www.bisim.com.tr/istasyonlar.aspx"}}, {"type": "node", "id": 11579537369, "lat": 38.4375512, "lon": 27.1441837, "tags": {"amenity": "cafe", "name": "Sushi City Alsancak uzakdo\u011fu restorani", "name:ru": "\u0420\u0435\u0441\u0442\u043e\u0440\u0430\u043d \u0430\u0437\u0438\u0430\u0442\u0441\u043a\u043e\u0439 \u043a\u0443\u0445\u043d\u0438"}}, {"type": "node", "id": 11581653669, "lat": 38.4369132, "lon": 27.1445081, "tags": {"amenity": "cafe", "name": "Castelo Restaurant", "name:ru": "\u0420\u0435\u0441\u0442\u043e\u0440\u0430\u043d Castelo"}}, {"type": "way", "id": 172796127, "nodes": [1836488788, 6630741567, 6630741566, 6630741565, 1836488786, 1836488785, 1836488789, 1836488792, 1836488787, 1836488788], "tags": {"amenity": "parking"}}, {"type": "way", "id": 256317184, "nodes": [2619815586, 8074813999, 8074813998, 2619815587, 8074813997, 2619815589, 2619815586], "tags": {"amenity": "school", "name": "Saint Joseph Frans\u0131z Lisesi", "wikidata": "Q21526887", "wikipedia": "tr:\u0130zmir Saint Joseph Lisesi"}}, {"type": "way", "id": 260493774, "nodes": [2659842623, 2659842624, 2659842626, 2659842627, 2659842629, 2659842630, 2659842631, 2659842633, 2659842634, 2659842636, 2659842638, 2659842640, 2659842641, 2659842623], "tags": {"amenity": "place_of_worship", "name": "St. John the Evangelist Kilisesi (Anglikan)", "religion": "christian"}}, {"type": "way", "id": 820533197, "nodes": [7661781667, 7661781668, 8096126594, 8096126595, 8071739992, 7661781667], "tags": {"amenity": "place_of_worship", "denomination": "catholic", "name": "Saint Rosaire Dom Kilisesi", "name:en": "Saint Rosaire Dom Church", "religion": "christian", "wikidata": "Q5998091", "wikimedia_commons": "Category:Our Lady of the Rosary Church (\u0130zmir)", "wikipedia": "tr:Santissimo Rosario Kilisesi (\u0130zmir)"}}, {"type": "way", "id": 865871515, "nodes": [8070884888, 8070884889, 8070884890, 8070884891, 8070884888], "tags": {"amenity": "clinic", "building": "yes", "healthcare": "clinic", "name": "Alsancak \u00d6zel Kent Medical Center"}}, {"type": "way", "id": 865968469, "nodes": [8071529482, 8066503386, 8071529484, 8071529483, 8071529482], "tags": {"addr:city": "\u0130zmir", "addr:district": "Konak", "addr:housenumber": "33", "addr:postcode": "35220", "addr:street": "K\u0131br\u0131s \u015eehitleri Caddesi", "amenity": "restaurant", "building": "yes", "name": "06 D\u00f6ner"}}, {"type": "way", "id": 865982642, "nodes": [8071671201, 8071671200, 8071671199, 8071671198, 8071671201], "tags": {"amenity": "parking"}}, {"type": "way", "id": 866068417, "nodes": [8072460330, 8072460329, 8072460328, 8072460327, 8072460330], "tags": {"addr:city": "\u0130zmir", "addr:district": "Konak", "addr:housenumber": "10/B", "addr:postcode": "35220", "addr:street": "1460. Sokak", "air_conditioning": "no", "amenity": "restaurant", "bar": "yes", "building": "yes", "cuisine": "burger;regional;pizza", "diet:vegan": "yes", "microbrewery": "no", "name": "Cute Gastro Pub", "opening_hours": "Mo-Sa 11:00-22:00", "outdoor_seating": "yes", "payment:cash": "yes", "payment:credit_cards": "yes", "payment:mastercard": "yes", "payment:visa": "yes", "phone": "+90 555 726 56 65"}}, {"type": "way", "id": 866654811, "nodes": [8078009212, 8078009213, 8078009214, 8078009215, 8078009212], "tags": {"amenity": "school", "name": "Salih \u0130\u015fg\u00f6ren \u0130lk\u00f6\u011fretim Okulu"}}, {"type": "way", "id": 866708777, "nodes": [8078467120, 8078467121, 8078467122, 8078467123, 8078467120], "tags": {"amenity": "parking"}}, {"type": "way", "id": 866708778, "nodes": [8078467124, 8078467125, 8078467126, 8078467127, 8078467124], "tags": {"amenity": "parking"}}, {"type": "way", "id": 873329879, "nodes": [8132940774, 8132940775, 8132940776, 8132940777, 8132940774], "tags": {"addr:city": "\u0130zmir", "addr:district": "Konak", "addr:housenumber": "13", "addr:postcode": "35220", "addr:street": "1449. Sokak", "amenity": "cafe", "building": "yes", "name": "eflatun cafe"}}, {"type": "way", "id": 874870189, "nodes": [8143809402, 8143809403, 8143809404, 8143809405, 8143809406, 8143809402], "tags": {"access": "yes", "amenity": "parking", "fee": "yes", "parking": "surface"}}, {"type": "way", "id": 913402649, "nodes": [8484929703, 8484929704, 8484929705, 8484929706, 8484929703], "tags": {"amenity": "toilets", "building": "yes"}}, {"type": "way", "id": 1153879547, "nodes": [10731342369, 10731342370, 10731342371, 10731342372, 10731342373, 10731342374, 10731342375, 10731342376, 10731342377, 10731342378, 10731342379, 10731342380, 10731342381, 10731342382, 10731342383, 10731342384, 10731342385, 10731342386, 10731342387, 10731342388, 10731342389, 10731342390, 10731342391, 10731342392, 10731342393, 10731342369], "tags": {"amenity": "parking", "building": "yes", "building:levels": "8", "ele": "25", "name": "Alsancak Punta Katl\u0131 Otopark\u0131", "operator": "\u0130zmir B\u00fcy\u00fck\u015fehir Belediyesi", "parking": "multi-storey"}}]}